[{"OBJECT_NAME":"STARLINK-6074","OBJECT_ID":"2023-065BC","EPOCH":"2026-03-09T22:00:01.999584","MEAN_MOTION":15.12031163,"ECCENTRICITY":0.00013808,"INCLINATION":43.0003,"RA_OF_ASC_NODE":221.4509,"ARG_OF_PERICENTER":288.0031,"MEAN_ANOMALY":182.3941,"EPHEMERIS_TYPE":0,"CLASSIFICATION_TYPE":"U","NORAD_CAT_ID":56553,"ELEMENT_SET_NO":999,"REV_AT_EPOCH":573,"BSTAR":0.072218163,"MEAN_MOTION_DOT":0.01376494,"MEAN_MOTION_DDOT":0},{"OBJECT_NAME":"PEGASUS DEB","OBJECT_ID":"1994-029AER","EPOCH":"2026-02-26T06:39:21.581568","MEAN_MOTION":15.03561005,"ECCENTRICITY":0.01227406,"INCLINATION":81.7323,"RA_OF_ASC_NODE":356.2383,"ARG_OF_PERICENTER":77.7128,"MEAN_ANOMALY":283.7806,"EPHEMERIS_TYPE":0,"CLASSIFICATION_TYPE":"U","NORAD_CAT_ID":39306,"ELEMENT_SET_NO":999,"REV_AT_EPOCH":9218,"BSTAR":0.0046128236,"MEAN_MOTION_DOT":0.00074995,"MEAN_MOTION_DDOT":0}]
